NORAD_CAT_ID,OBJECT_NAME,OBJECT_TYPE,EPOCH,MEAN_MOTION,ECCENTRICITY,INCLINATION,RA_OF_ASC_NODE,ARG_OF_PERICENTER,MEAN_ANOMALY,BSTAR,MEAN_MOTION_DOT,MEAN_MOTION_DDOT,TLE_LINE0,TLE_LINE1,TLE_LINE2,SEMIMAJOR_AXIS,PERIOD,APOGEE,PERIGEE,DECAYED
55400.0,STARLINK-5632,PAYLOAD,2024-04-11 04:07:26,14.98329824,0.0002634,70.001,23.1644,268.262,91.8237,4.8328e-05,4.84e-06,0.0,0 STARLINK-5632,1 55400U 23014K   24102.17183342  .00000484  00000-0  48328-4 0  9997,2 55400  70.0010  23.1644 0002634 268.2620  91.8237 14.98329824 66636,6950.193,96.107,573.889,570.228,0.0
55400.0,STARLINK-5632,PAYLOAD,2024-04-11 12:08:07,14.98322426,0.0002662,70.0007,22.322,271.5432,88.5422,-1.2858e-05,-2.46e-06,0.0,0 STARLINK-5632,1 55400U 23014K   24102.50564037 -.00000246  00000-0 -12858-4 0  9995,2 55400  70.0007  22.3220 0002662 271.5432  88.5422 14.98322426 66687,6950.216,96.107,573.931,570.231,0.0
55400.0,STARLINK-5632,PAYLOAD,2024-04-11 21:44:56,14.98318398,0.0002717,70.0014,21.3124,271.1069,88.9779,-6.5824e-05,-8.78e-06,0.0,0 STARLINK-5632,1 55400U 23014K   24102.90620609 -.00000878  00000-0 -65824-4 0  9999,2 55400  70.0014  21.3124 0002717 271.1069  88.9779 14.98318398 67683,6950.229,96.108,573.982,570.205,0.0
55400.0,STARLINK-5632,PAYLOAD,2024-04-12 04:09:28,14.98324678,0.0002928,70.0006,20.6368,266.5478,93.5346,-6.2439e-05,-8.38e-06,0.0,0 STARLINK-5632,1 55400U 23014K   24103.17324231 -.00000838  00000-0 -62439-4 0  9996,2 55400  70.0006  20.6368 0002928 266.5478  93.5346 14.98324678 67727,6950.209,96.107,574.109,570.039,0.0
55400.0,STARLINK-5632,PAYLOAD,2024-04-12 21:46:56,14.98332823,0.0002824,70.0003,18.7858,268.6027,91.4808,8.8348e-05,9.61e-06,0.0,0 STARLINK-5632,1 55400U 23014K   24103.90759402  .00000961  00000-0  88348-4 0  9991,2 55400  70.0003  18.7858 0002824 268.6027  91.4808 14.98332823 67837,6950.184,96.107,574.012,570.086,0.0
55400.0,STARLINK-5632,PAYLOAD,2024-04-13 04:11:27,14.98341981,0.0002804,70.0004,18.1125,268.6393,91.4445,0.00014062,1.586e-05,0.0,0 STARLINK-5632,1 55400U 23014K   24104.17462563  .00001586  00000-0  14062-3 0  9995,2 55400  70.0004  18.1125 0002804 268.6393  91.4445 14.98341981 66935,6950.156,96.106,573.97,570.072,0.0
55400.0,STARLINK-5632,PAYLOAD,2024-04-13 20:12:48,14.98328451,0.0002511,70.0017,16.432,269.1416,90.9455,0.00014525,1.64e-05,0.0,0 STARLINK-5632,1 55400U 23014K   24104.84223324  .00001640  00000-0  14525-3 0  9994,2 55400  70.0017  16.4320 0002511 269.1416  90.9455 14.98328451 67038,6950.198,96.107,573.808,570.317,0.0
55400.0,STARLINK-5632,PAYLOAD,2024-04-13 21:48:57,14.98328148,0.0002557,70.0014,16.2636,267.9209,92.1658,0.00013236,1.487e-05,0.0,0 STARLINK-5632,1 55400U 23014K   24104.90899364  .00001487  00000-0  13236-3 0  9991,2 55400  70.0014  16.2636 0002557 267.9209  92.1658 14.98328148 67985,6950.199,96.107,573.841,570.286,0.0
55400.0,STARLINK-5632,PAYLOAD,2024-04-14 20:14:49,14.98337602,0.0002548,70.0014,13.9089,256.2246,103.8629,-2.439e-05,-3.84e-06,0.0,0 STARLINK-5632,1 55400U 23014K   24105.84363034 -.00000384  00000-0 -24390-4 0  9996,2 55400  70.0014  13.9089 0002548 256.2246 103.8629 14.98337602 67188,6950.169,96.107,573.805,570.263,0.0
55400.0,STARLINK-5632,PAYLOAD,2024-04-14 21:50:57,14.98337839,0.0002531,70.0015,13.7403,257.5133,102.5743,-2.2679e-05,-3.64e-06,0.0,0 STARLINK-5632,1 55400U 23014K   24105.91038992 -.00000364  00000-0 -22679-4 0  9992,2 55400  70.0015  13.7403 0002531 257.5133 102.5743 14.98337839 68139,6950.169,96.106,573.793,570.275,0.0
55400.0,STARLINK-5632,PAYLOAD,2024-04-15 04:15:29,14.98340718,0.0002458,70.0015,13.0662,261.3629,98.7252,8.0803e-06,4e-08,0.0,0 STARLINK-5632,1 55400U 23014K   24106.17742609  .00000004  00000-0  80803-5 0  9991,2 55400  70.0015  13.0662 0002458 261.3629  98.7252 14.98340718 68175,6950.16,96.106,573.733,570.316,0.0
55400.0,STARLINK-5632,PAYLOAD,2024-04-15 20:16:50,14.98329633,0.0002339,70.0018,11.383,252.569,107.5213,3.5714e-05,3.33e-06,0.0,0 STARLINK-5632,1 55400U 23014K   24106.84502977  .00000333  00000-0  35714-4 0  9992,2 55400  70.0018  11.3830 0002339 252.5690 107.5213 14.98329633 67330,6950.194,96.107,573.685,570.433,0.0
55400.0,STARLINK-5632,PAYLOAD,2024-04-16 10:42:02,14.98336053,0.0002349,70.0018,9.8661,272.6362,87.4528,5.3327e-05,5.44e-06,0.0,0 STARLINK-5632,1 55400U 23014K   24107.44586526  .00000544  00000-0  53327-4 0  9995,2 55400  70.0018   9.8661 0002349 272.6362  87.4528 14.98336053 68367,6950.174,96.107,573.672,570.407,0.0
55400.0,STARLINK-5632,PAYLOAD,2024-04-16 20:18:50,14.98336853,0.00028,70.0007,8.8555,269.8992,90.1846,7.8428e-05,8.43e-06,0.0,0 STARLINK-5632,1 55400U 23014K   24107.84642156  .00000843  00000-0  78428-4 0  9992,2 55400  70.0007   8.8555 0002800 269.8992  90.1846 14.98336853 67489,6950.172,96.107,573.983,570.091,0.0
55400.0,STARLINK-5632,PAYLOAD,2024-04-16 21:54:58,14.98337895,0.0002838,70.0007,8.6876,271.2397,88.8437,7.9475e-05,8.56e-06,0.0,0 STARLINK-5632,1 55400U 23014K   24107.91318076  .00000856  00000-0  79475-4 0  9998,2 55400  70.0007   8.6876 0002838 271.2397  88.8437 14.98337895 68433,6950.168,96.106,574.006,570.061,0.0
55400.0,STARLINK-5632,PAYLOAD,2024-04-17 02:43:22,14.98350582,0.0002698,70.0006,8.1839,268.9936,91.0914,0.00014258,1.61e-05,0.0,0 STARLINK-5632,1 55400U 23014K   24108.11344909  .00001610  00000-0  14258-3 0  9991,2 55400  70.0006   8.1839 0002698 268.9936  91.0914 14.98350582 67525,6950.129,96.106,573.869,570.119,0.0
55400.0,STARLINK-5632,PAYLOAD,2024-04-17 20:20:45,14.98411461,0.0002982,70.001,6.3304,259.701,100.3813,0.00077004,9.126e-05,0.0,0 STARLINK-5632,1 55400U 23014K   24108.84774522  .00009126  00000-0  77004-3 0  9997,2 55400  70.0010   6.3304 0002982 259.7010 100.3813 14.98411461 67632,6949.941,96.102,573.878,569.734,0.0
55400.0,STARLINK-5632,PAYLOAD,2024-04-17 21:56:58,14.98336821,0.0002616,70.0009,6.1614,257.3602,102.7265,-8.0395e-05,-1.052e-05,0.0,0 STARLINK-5632,1 55400U 23014K   24108.91456690 -.00001052  00000-0 -80395-4 0  9998,2 55400  70.0009   6.1614 0002616 257.3602 102.7265 14.98336821 68585,6950.172,96.107,573.855,570.219,0.0
55400.0,STARLINK-5632,PAYLOAD,2024-04-18 02:45:23,14.98329143,0.000342,69.999,5.6563,272.8746,87.2021,-0.00021233,-2.626e-05,0.0,0 STARLINK-5632,1 55400U 23014K   24109.11485392 -.00002626  00000-0 -21233-3 0  9995,2 55400  69.9990   5.6563 0003420 272.8746  87.2021 14.98329143 67678,6950.196,96.107,574.438,569.684,0.0
55400.0,STARLINK-5632,PAYLOAD,2024-04-18 20:22:54,14.98304185,0.0002852,70.0007,3.8076,269.1332,90.95,-0.00038228,-4.648e-05,0.0,0 STARLINK-5632,1 55400U 23014K   24109.84924249 -.00004648  00000-0 -38228-3 0  9992,2 55400  70.0007   3.8076 0002852 269.1332  90.9500 14.98304185 67781,6950.273,96.109,574.12,570.156,0.0
55400.0,STARLINK-5632,PAYLOAD,2024-04-18 21:59:02,14.98303992,0.0002864,70.0008,3.6393,269.5005,90.5826,-0.00037873,-4.606e-05,0.0,0 STARLINK-5632,1 55400U 23014K   24109.91600334 -.00004606  00000-0 -37873-3 0  9995,2 55400  70.0008   3.6393 0002864 269.5005  90.5826 14.98303992 68734,6950.273,96.109,574.129,570.148,0.0
55400.0,STARLINK-5632,PAYLOAD,2024-04-19 02:47:26,14.98311867,0.0002942,70.0006,3.1353,262.1691,97.9134,-0.0004171,-5.064e-05,0.0,0 STARLINK-5632,1 55400U 23014K   24110.11628096 -.00005064  00000-0 -41710-3 0  9998,2 55400  70.0006   3.1353 0002942 262.1691  97.9134 14.98311867 67822,6950.249,96.108,574.159,570.069,0.0
55400.0,STARLINK-5632,PAYLOAD,2024-04-19 20:24:53,14.98358801,0.0003673,69.9992,1.2751,283.3101,76.7648,-0.0006802,-8.206e-05,0.0,0 STARLINK-5632,1 55400U 23014K   24110.85062293 -.00008206  00000-0 -68020-3 0  9994,2 55400  69.9992   1.2751 0003673 283.3101  76.7648 14.98358801 67933,6950.104,96.105,574.522,569.416,0.0
55400.0,STARLINK-5632,PAYLOAD,2024-04-19 22:01:01,14.98359116,0.0002892,70.0008,1.1096,270.527,89.5558,-0.0006055,-7.316e-05,0.0,0 STARLINK-5632,1 55400U 23014K   24110.91737943 -.00007316  00000-0 -60550-3 0  9993,2 55400  70.0008   1.1096 0002892 270.5270  89.5558 14.98359116 68889,6950.103,96.105,573.978,569.958,0.0
55400.0,STARLINK-5632,PAYLOAD,2024-04-20 02:49:23,14.98381313,0.0003173,70.0006,0.613,259.4607,100.6195,-0.00045732,-5.553e-05,0.0,0 STARLINK-5632,1 55400U 23014K   24111.11763612 -.00005553  00000-0 -45732-3 0  9994,2 55400  70.0006   0.6130 0003173 259.4607 100.6195 14.98381313 67978,6950.034,96.104,574.104,569.694,0.0
55400.0,STARLINK-5632,PAYLOAD,2024-04-20 20:26:56,14.98308983,0.0002859,70.001,358.7581,271.1206,88.9625,0.00027061,3.136e-05,0.0,0 STARLINK-5632,1 55400U 23014K   24111.85203818  .00003136  00000-0  27061-3 0  9990,2 55400  70.0010 358.7581 0002859 271.1206  88.9625 14.98308983 68087,6950.258,96.108,574.11,570.136,0.0
55400.0,STARLINK-5632,PAYLOAD,2024-04-21 02:51:27,14.98317947,0.0002441,70.0015,358.0851,251.1671,108.9223,0.00035427,4.135e-05,0.0,0 STARLINK-5632,1 55400U 23014K   24112.11907264  .00004135  00000-0  35427-3 0  9991,2 55400  70.0015 358.0851 0002441 251.1671 108.9223 14.98317947 68128,6950.23,96.108,573.792,570.399,0.0
55400.0,STARLINK-5632,PAYLOAD,2024-04-21 20:28:56,14.98335681,0.0002326,70.0017,356.2335,239.2738,120.8192,2.2015e-05,1.7e-06,0.0,0 STARLINK-5632,1 55400U 23014K   24112.85343079  .00000170  00000-0  22015-4 0  9995,2 55400  70.0017 356.2335 0002326 239.2738 120.8192 14.98335681 68235,6950.175,96.107,573.657,570.424,0.0
55400.0,STARLINK-5632,PAYLOAD,2024-04-21 22:05:04,14.98335685,0.0002386,70.0016,356.0655,240.5367,119.5555,2.8744e-05,2.5e-06,0.0,0 STARLINK-5632,1 55400U 23014K   24112.92019052  .00000250  00000-0  28744-4 0  9998,2 55400  70.0016 356.0655 0002386 240.5367 119.5555 14.98335685 69183,6950.175,96.107,573.699,570.382,0.0
55400.0,STARLINK-5632,PAYLOAD,2024-04-22 02:53:28,14.98338898,0.0002356,70.0017,355.5606,238.188,121.905,4.8154e-05,4.82e-06,0.0,0 STARLINK-5632,1 55400U 23014K   24113.12046720  .00000482  00000-0  48154-4 0  9997,2 55400  70.0017 355.5606 0002356 238.1880 121.9050 14.98338898 69214,6950.165,96.106,573.668,570.393,0.0
